[{"OBJECT_NAME":"STARLINK-6345","OBJECT_ID":"2023-078Z","EPOCH":"2026-03-09T22:41:44.272320","MEAN_MOTION":14.98331684,"ECCENTRICITY":0.00030473,"INCLINATION":69.9996,"RA_OF_ASC_NODE":303.8551,"ARG_OF_PERICENTER":265.9913,"MEAN_ANOMALY":94.0898,"EPHEMERIS_TYPE":0,"CLASSIFICATION_TYPE":"U","NORAD_CAT_ID":56790,"ELEMENT_SET_NO":999,"REV_AT_EPOCH":15370,"BSTAR":-4.973511e-6,"MEAN_MOTION_DOT":-1.52e-6,"MEAN_MOTION_DDOT":0},{"OBJECT_NAME":"LEMUR-2-ARIANNA","OBJECT_ID":"2025-009CU","EPOCH":"2026-03-09T17:46:47.419968","MEAN_MOTION":15.00881954,"ECCENTRICITY":0.00046401,"INCLINATION":97.6996,"RA_OF_ASC_NODE":151.0445,"ARG_OF_PERICENTER":147.3928,"MEAN_ANOMALY":212.7583,"EPHEMERIS_TYPE":0,"CLASSIFICATION_TYPE":"U","NORAD_CAT_ID":62699,"ELEMENT_SET_NO":999,"REV_AT_EPOCH":6263,"BSTAR":0.00071790312,"MEAN_MOTION_DOT":9.084e-5,"MEAN_MOTION_DDOT":0}]
